{
  "type": "FeatureCollection",
  "features": [
    {
      "type": "Feature",
      "properties": {
        "norad_id": 35207,
        "name": "FENGYUN 1C DEB",
        "group": "fengyun-1c-debris",
        "lat": 53.76597289821881,
        "lon": 73.67220699219999,
        "alt_km": 739.7674789823996,
        "timestamp": "2025-12-13T08:49:15.974302+00:00",
        "meta_object_name": "FENGYUN 1C DEB",
        "meta_object_id": "1999-025DPP",
        "meta_epoch": "2025-12-12T17:43:10.254432",
        "meta_mean_motion": 14.55448901,
        "meta_eccentricity": 0.00551737,
        "meta_inclination": 98.6911,
        "meta_ra_of_asc_node": 85.0661,
        "meta_arg_of_pericenter": 255.394,
        "meta_mean_anomaly": 104.1134,
        "meta_ephemeris_type": 0,
        "meta_classification_type": "U",
        "meta_norad_cat_id": 35207,
        "meta_element_set_no": 999,
        "meta_rev_at_epoch": 64904,
        "meta_bstar": 0.0031307529,
        "meta_mean_motion_dot": 0.00013868,
        "meta_mean_motion_ddot": 0,
        "tle_line1": "1 35207U 99025DPP 25346.73831313  .00013868  00000+0  31308-2 0  9993",
        "tle_line2": "2 35207  98.6911  85.0661 0055173 255.3940 104.1134 14.55448901649046"
      },
      "geometry": {
        "type": "Point",
        "coordinates": [
          73.67220699219999,
          53.76597289821881
        ]
      }
    },
    {
      "type": "Feature",
      "properties": {
        "norad_id": 35208,
        "name": "FENGYUN 1C DEB",
        "group": "fengyun-1c-debris",
        "lat": -78.30863845010718,
        "lon": 55.79192327672389,
        "alt_km": 941.5800536309152,
        "timestamp": "2025-12-13T08:49:15.974313+00:00",
        "meta_object_name": "FENGYUN 1C DEB",
        "meta_object_id": "1999-025DPQ",
        "meta_epoch": "2025-12-12T19:29:45.564288",
        "meta_mean_motion": 13.99657071,
        "meta_eccentricity": 0.01013151,
        "meta_inclination": 98.903,
        "meta_ra_of_asc_node": 6.0094,
        "meta_arg_of_pericenter": 156.4473,
        "meta_mean_anomaly": 204.1379,
        "meta_ephemeris_type": 0,
        "meta_classification_type": "U",
        "meta_norad_cat_id": 35208,
        "meta_element_set_no": 999,
        "meta_rev_at_epoch": 90564,
        "meta_bstar": 0.0013122763,
        "meta_mean_motion_dot": 1.963e-05,
        "meta_mean_motion_ddot": 0,
        "tle_line1": "1 35208U 99025DPQ 25346.81233292  .00001963  00000+0  13123-2 0  9993",
        "tle_line2": "2 35208  98.9030   6.0094 0101315 156.4473 204.1379 13.99657071905647"
      },
      "geometry": {
        "type": "Point",
        "coordinates": [
          55.79192327672389,
          -78.30863845010718
        ]
      }
    },
    {
      "type": "Feature",
      "properties": {
        "norad_id": 35210,
        "name": "FENGYUN 1C DEB",
        "group": "fengyun-1c-debris",
        "lat": -65.48678378118316,
        "lon": 11.77320539734201,
        "alt_km": 766.6838622151345,
        "timestamp": "2025-12-13T08:49:15.974324+00:00",
        "meta_object_name": "FENGYUN 1C DEB",
        "meta_object_id": "1999-025DPS",
        "meta_epoch": "2025-12-12T12:04:35.156352",
        "meta_mean_motion": 14.33629927,
        "meta_eccentricity": 0.00493258,
        "meta_inclination": 99.0992,
        "meta_ra_of_asc_node": 350.2888,
        "meta_arg_of_pericenter": 239.8273,
        "meta_mean_anomaly": 274.0765,
        "meta_ephemeris_type": 0,
        "meta_classification_type": "U",
        "meta_norad_cat_id": 35210,
        "meta_element_set_no": 999,
        "meta_rev_at_epoch": 90119,
        "meta_bstar": 0.0036086515,
        "meta_mean_motion_dot": 0.00010103,
        "meta_mean_motion_ddot": 0,
        "tle_line1": "1 35210U 99025DPS 25346.50318468  .00010103  00000+0  36087-2 0  9991",
        "tle_line2": "2 35210  99.0992 350.2888 0049325 239.8273 274.0765 14.33629927901199"
      },
      "geometry": {
        "type": "Point",
        "coordinates": [
          11.77320539734201,
          -65.48678378118316
        ]
      }
    },
    {
      "type": "Feature",
      "properties": {
        "norad_id": 35217,
        "name": "FENGYUN 1C DEB",
        "group": "fengyun-1c-debris",
        "lat": -6.806312131144717,
        "lon": -95.90837489115948,
        "alt_km": 925.9468257223489,
        "timestamp": "2025-12-13T08:49:15.974334+00:00",
        "meta_object_name": "FENGYUN 1C DEB",
        "meta_object_id": "1999-025DPZ",
        "meta_epoch": "2025-12-05T23:58:33.093696",
        "meta_mean_motion": 13.57450047,
        "meta_eccentricity": 0.03033796,
        "meta_inclination": 101.8756,
        "meta_ra_of_asc_node": 253.7635,
        "meta_arg_of_pericenter": 311.644,
        "meta_mean_anomaly": 45.907,
        "meta_ephemeris_type": 0,
        "meta_classification_type": "U",
        "meta_norad_cat_id": 35217,
        "meta_element_set_no": 999,
        "meta_rev_at_epoch": 61128,
        "meta_bstar": 0.0049764515,
        "meta_mean_motion_dot": 4.747e-05,
        "meta_mean_motion_ddot": 0,
        "tle_line1": "1 35217U 99025DPZ 25339.99899414  .00004747  00000+0  49765-2 0  9992",
        "tle_line2": "2 35217 101.8756 253.7635 0303379 311.6440  45.9070 13.57450047611282"
      },
      "geometry": {
        "type": "Point",
        "coordinates": [
          -95.90837489115948,
          -6.806312131144717
        ]
      }
    },
    {
      "type": "Feature",
      "properties": {
        "norad_id": 35220,
        "name": "FENGYUN 1C DEB",
        "group": "fengyun-1c-debris",
        "lat": -44.1626779331158,
        "lon": 66.29698022999446,
        "alt_km": 792.5392119644321,
        "timestamp": "2025-12-13T08:49:15.974344+00:00",
        "meta_object_name": "FENGYUN 1C DEB",
        "meta_object_id": "1999-025DQC",
        "meta_epoch": "2025-12-09T03:44:46.125024",
        "meta_mean_motion": 14.22518775,
        "meta_eccentricity": 0.00434323,
        "meta_inclination": 99.0273,
        "meta_ra_of_asc_node": 53.1031,
        "meta_arg_of_pericenter": 317.8282,
        "meta_mean_anomaly": 41.9557,
        "meta_ephemeris_type": 0,
        "meta_classification_type": "U",
        "meta_norad_cat_id": 35220,
        "meta_element_set_no": 999,
        "meta_rev_at_epoch": 63132,
        "meta_bstar": 0.0018808139,
        "meta_mean_motion_dot": 4.193e-05,
        "meta_mean_motion_ddot": 0,
        "tle_line1": "1 35220U 99025DQC 25343.15608941  .00004193  00000+0  18808-2 0  9991",
        "tle_line2": "2 35220  99.0273  53.1031 0043432 317.8282  41.9557 14.22518775631322"
      },
      "geometry": {
        "type": "Point",
        "coordinates": [
          66.29698022999446,
          -44.1626779331158
        ]
      }
    },
    {
      "type": "Feature",
      "properties": {
        "norad_id": 35223,
        "name": "FENGYUN 1C DEB",
        "group": "fengyun-1c-debris",
        "lat": 52.232754121160376,
        "lon": -41.827149637029166,
        "alt_km": 592.9208284472579,
        "timestamp": "2025-12-13T08:49:15.974354+00:00",
        "meta_object_name": "FENGYUN 1C DEB",
        "meta_object_id": "1999-025DQF",
        "meta_epoch": "2025-12-11T09:48:54.309024",
        "meta_mean_motion": 14.88938109,
        "meta_eccentricity": 0.01286053,
        "meta_inclination": 98.9711,
        "meta_ra_of_asc_node": 327.7205,
        "meta_arg_of_pericenter": 330.8089,
        "meta_mean_anomaly": 28.5978,
        "meta_ephemeris_type": 0,
        "meta_classification_type": "U",
        "meta_norad_cat_id": 35223,
        "meta_element_set_no": 999,
        "meta_rev_at_epoch": 93862,
        "meta_bstar": 0.0016128776,
        "meta_mean_motion_dot": 0.00017646,
        "meta_mean_motion_ddot": 0,
        "tle_line1": "1 35223U 99025DQF 25345.40896191  .00017646  00000+0  16129-2 0  9991",
        "tle_line2": "2 35223  98.9711 327.7205 0128605 330.8089  28.5978 14.88938109938629"
      },
      "geometry": {
        "type": "Point",
        "coordinates": [
          -41.827149637029166,
          52.232754121160376
        ]
      }
    },
    {
      "type": "Feature",
      "properties": {
        "norad_id": 35229,
        "name": "FENGYUN 1C DEB",
        "group": "fengyun-1c-debris",
        "lat": 77.61975468287388,
        "lon": -70.94584429970583,
        "alt_km": 697.0679609646149,
        "timestamp": "2025-12-13T08:49:15.974365+00:00",
        "meta_object_name": "FENGYUN 1C DEB",
        "meta_object_id": "1999-025DQM",
        "meta_epoch": "2025-12-08T23:08:00.019104",
        "meta_mean_motion": 14.60344709,
        "meta_eccentricity": 0.0047489,
        "meta_inclination": 98.4583,
        "meta_ra_of_asc_node": 61.8783,
        "meta_arg_of_pericenter": 226.2462,
        "meta_mean_anomaly": 133.4802,
        "meta_ephemeris_type": 0,
        "meta_classification_type": "U",
        "meta_norad_cat_id": 35229,
        "meta_element_set_no": 999,
        "meta_rev_at_epoch": 64451,
        "meta_bstar": 0.006925,
        "meta_mean_motion_dot": 0.00034127,
        "meta_mean_motion_ddot": 0,
        "tle_line1": "1 35229U 99025DQM 25342.96388911  .00034127  00000+0  69250-2 0  9997",
        "tle_line2": "2 35229  98.4583  61.8783 0047489 226.2462 133.4802 14.60344709644518"
      },
      "geometry": {
        "type": "Point",
        "coordinates": [
          -70.94584429970583,
          77.61975468287388
        ]
      }
    }
  ]
}